{
  "norad_id": 59928,
  "name": "STARLINK-31970",
  "history": [
    {
      "epoch": "2026-05-06T08:52:26.422464Z",
      "apogee_km": 484.0739089248673,
      "perigee_km": 481.8280003937889,
      "latitude_deg": -1.477550803341214e-05,
      "longitude_deg": 9.488126763976577,
      "height_km": 482.22193080034094,
      "semi_major_axis_km": 6861.087954659328,
      "eccentricity": 0.00016367,
      "inclination_deg": 43.006,
      "raan_deg": 6.8296,
      "arg_perigee_deg": 296.8114,
      "mean_anomaly_deg": 63.257,
      "mean_motion_rev_day": 15.27612776
    },
    {
      "epoch": "2026-05-07T08:24:49.336992Z",
      "apogee_km": 483.4054843162039,
      "perigee_km": 482.72896957942794,
      "latitude_deg": -8.442825062132211e-06,
      "longitude_deg": 9.886011633888135,
      "height_km": 482.63461752264203,
      "semi_major_axis_km": 6861.204226947816,
      "eccentricity": 4.93e-05,
      "inclination_deg": 43.0022,
      "raan_deg": 1.2897,
      "arg_perigee_deg": 308.0919,
      "mean_anomaly_deg": 51.9888,
      "mean_motion_rev_day": 15.27573945
    },
    {
      "epoch": "2026-05-08T07:57:08.806752Z",
      "apogee_km": 483.9070886229092,
      "perigee_km": 482.1794434319236,
      "latitude_deg": 2.9192988249007592e-05,
      "longitude_deg": 10.298622819993017,
      "height_km": 482.86444077277343,
      "semi_major_axis_km": 6861.180266027416,
      "eccentricity": 0.0001259,
      "inclination_deg": 43.0032,
      "raan_deg": 355.7501,
      "arg_perigee_deg": 267.064,
      "mean_anomaly_deg": 93.0068,
      "mean_motion_rev_day": 15.27581947
    }
  ]
}